{"fetched_at":"2026-03-29T16:36:15Z","count":15609,"tles":[{"name":"STARLINK-30155","line1":"1 57475U 23107U   26087.66814693  .00000725  00000+0  35883-4 0  9991","line2":"2 57475  43.0003 228.5689 0001751 266.9924  93.0727 15.27579649148053","category":"Starlink"}]}